NORAD_CAT_ID,OBJECT_NAME,OBJECT_TYPE,EPOCH,MEAN_MOTION,ECCENTRICITY,INCLINATION,RA_OF_ASC_NODE,ARG_OF_PERICENTER,MEAN_ANOMALY,BSTAR,MEAN_MOTION_DOT,MEAN_MOTION_DDOT,TLE_LINE0,TLE_LINE1,TLE_LINE2,SEMIMAJOR_AXIS,PERIOD,APOGEE,PERIGEE,DECAYED
49418.0,STARLINK-3111,PAYLOAD,2024-07-04 04:32:11,15.08849417,0.0001346,53.2154,103.2308,89.7779,270.3367,0.0001886,2.716e-05,0.0,0 STARLINK-3111,1 49418U 21104L   24186.18901967  .00002716  00000-0  18860-3 0  9998,2 49418  53.2154 103.2308 0001346  89.7779 270.3367 15.08849417147115,6917.852,95.437,540.648,538.785,0.0
49418.0,STARLINK-3111,PAYLOAD,2024-07-04 18:50:39,15.08839349,0.0001705,53.2156,100.5543,96.1326,263.986,-1.6733e-05,-5.54e-06,0.0,0 STARLINK-3111,1 49418U 21104L   24186.78518373 -.00000554  00000-0 -16733-4 0  9997,2 49418  53.2156 100.5543 0001705  96.1326 263.9860 15.08839349147206,6917.882,95.438,540.927,538.568,0.0
49418.0,STARLINK-3111,PAYLOAD,2024-07-04 22:01:26,15.0884042,0.0001846,53.2158,99.9602,121.004,239.1133,4.3134e-05,3.98e-06,0.0,0 STARLINK-3111,1 49418U 21104L   24186.91766361  .00000398  00000-0  43134-4 0  9993,2 49418  53.2158  99.9602 0001846 121.0040 239.1133 15.08840420146111,6917.879,95.438,541.021,538.467,0.0
49418.0,STARLINK-3111,PAYLOAD,2024-07-05 10:44:31,15.08839215,0.0001198,53.2151,97.5797,88.1592,271.9538,0.00010326,1.356e-05,0.0,0 STARLINK-3111,1 49418U 21104L   24187.44758544  .00001356  00000-0  10326-3 0  9997,2 49418  53.2151  97.5797 0001198  88.1592 271.9538 15.08839215146199,6917.883,95.438,540.577,538.919,0.0
49418.0,STARLINK-3111,PAYLOAD,2024-07-05 21:52:13,15.08838189,0.0001177,53.2154,95.4989,78.0576,282.0548,-1.0861e-05,-4.61e-06,0.0,0 STARLINK-3111,1 49418U 21104L   24187.91126740 -.00000461  00000-0 -10861-4 0  9999,2 49418  53.2154  95.4989 0001177  78.0576 282.0548 15.08838189146260,6917.886,95.438,540.565,538.937,0.0
49418.0,STARLINK-3111,PAYLOAD,2024-07-06 01:02:59,15.08844437,0.0001093,53.2155,94.9065,93.5663,266.5454,6.0043e-05,6.68e-06,0.0,0 STARLINK-3111,1 49418U 21104L   24188.04374235  .00000668  00000-0  60043-4 0  9992,2 49418  53.2155  94.9065 0001093  93.5663 266.5454 15.08844437147397,6917.867,95.437,540.488,538.976,0.0
49418.0,STARLINK-3111,PAYLOAD,2024-07-06 10:35:18,15.08846776,0.0001094,53.2157,93.1222,91.5817,268.53,9.5188e-05,1.228e-05,0.0,0 STARLINK-3111,1 49418U 21104L   24188.44118061  .00001228  00000-0  95188-4 0  9990,2 49418  53.2157  93.1222 0001094  91.5817 268.5300 15.08846776146349,6917.86,95.437,540.481,538.968,0.0
49418.0,STARLINK-3111,PAYLOAD,2024-07-06 18:32:14,15.08831561,0.0001818,53.2166,91.6339,87.354,272.766,-7.6112e-05,-1.499e-05,0.0,0 STARLINK-3111,1 49418U 21104L   24188.77239069 -.00001499  00000-0 -76112-4 0  9996,2 49418  53.2166  91.6339 0001818  87.3540 272.7660 15.08831561147502,6917.906,95.438,541.029,538.514,0.0
49418.0,STARLINK-3111,PAYLOAD,2024-07-06 21:43:00,15.08832859,0.0001731,53.217,91.04,90.6938,269.4253,-3.9953e-05,-9.24e-06,0.0,0 STARLINK-3111,1 49418U 21104L   24188.90487191 -.00000924  00000-0 -39953-4 0  9996,2 49418  53.2170  91.0400 0001731  90.6938 269.4253 15.08832859146413,6917.902,95.438,540.965,538.57,0.0
49418.0,STARLINK-3111,PAYLOAD,2024-07-07 02:29:10,15.08834989,0.0001509,53.2171,90.1482,86.2267,273.8898,1.1408e-06,-2.7e-06,0.0,0 STARLINK-3111,1 49418U 21104L   24189.10359163 -.00000270  00000-0  11408-5 0  9995,2 49418  53.2171  90.1482 0001509  86.2267 273.8898 15.08834989146446,6917.896,95.438,540.805,538.717,0.0
49418.0,STARLINK-3111,PAYLOAD,2024-07-08 00:44:33,15.08848632,0.0001407,53.2164,85.986,88.4781,271.6373,0.00026052,3.862e-05,0.0,0 STARLINK-3111,1 49418U 21104L   24190.03094790  .00003862  00000-0  26052-3 0  9999,2 49418  53.2164  85.9860 0001407  88.4781 271.6373 15.08848632147694,6917.854,95.437,540.692,538.746,0.0
49418.0,STARLINK-3111,PAYLOAD,2024-07-08 10:16:52,15.08843114,0.0001432,53.2165,84.2019,77.1379,282.9774,0.00017316,2.469e-05,0.0,0 STARLINK-3111,1 49418U 21104L   24190.42839085  .00002469  00000-0  17316-3 0  9991,2 49418  53.2165  84.2019 0001432  77.1379 282.9774 15.08843114147756,6917.871,95.437,540.727,538.745,0.0
49418.0,STARLINK-3111,PAYLOAD,2024-07-08 22:59:58,15.08839979,0.0001317,53.2126,81.8208,83.0007,277.1135,0.00017826,2.55e-05,0.0,0 STARLINK-3111,1 49418U 21104L   24190.95831156  .00002550  00000-0  17826-3 0  9997,2 49418  53.2126  81.8208 0001317  83.0007 277.1135 15.08839979146729,6917.88,95.438,540.657,538.834,0.0
49418.0,STARLINK-3111,PAYLOAD,2024-07-09 10:07:40,15.08843367,0.0001385,53.2158,79.7386,83.3834,276.7315,0.00013628,1.882e-05,0.0,0 STARLINK-3111,1 49418U 21104L   24191.42199086  .00001882  00000-0  13628-3 0  9992,2 49418  53.2158  79.7386 0001385  83.3834 276.7315 15.08843367146791,6917.87,95.437,540.693,538.777,0.0
49418.0,STARLINK-3111,PAYLOAD,2024-07-09 21:15:21,15.08841973,0.0001427,53.2159,77.6559,89.2386,270.8769,5.8456e-05,6.43e-06,0.0,0 STARLINK-3111,1 49418U 21104L   24191.88567127  .00000643  00000-0  58456-4 0  9990,2 49418  53.2159  77.6559 0001427  89.2386 270.8769 15.08841973147975,6917.874,95.437,540.727,538.752,0.0
49418.0,STARLINK-3111,PAYLOAD,2024-07-09 22:50:45,15.08842002,0.0001376,53.2158,77.3592,89.9513,270.1636,6.1112e-05,6.85e-06,0.0,0 STARLINK-3111,1 49418U 21104L   24191.95191113  .00000685  00000-0  61112-4 0  9995,2 49418  53.2158  77.3592 0001376  89.9513 270.1636 15.08842002146878,6917.874,95.437,540.691,538.787,0.0
49418.0,STARLINK-3111,PAYLOAD,2024-07-10 09:58:26,15.08846253,0.000127,53.2149,75.2786,89.0265,271.0873,0.00015585,2.194e-05,0.0,0 STARLINK-3111,1 49418U 21104L   24192.41558865  .00002194  00000-0  15585-3 0  9997,2 49418  53.2149  75.2786 0001270  89.0265 271.0873 15.08846253146941,6917.861,95.437,540.605,538.848,0.0
49418.0,STARLINK-3111,PAYLOAD,2024-07-10 22:41:32,15.08843256,0.0001634,53.2168,72.9037,79.2497,280.8679,4.5566e-05,4.37e-06,0.0,0 STARLINK-3111,1 49418U 21104L   24192.94551326  .00000437  00000-0  45566-4 0  9991,2 49418  53.2168  72.9037 0001634  79.2497 280.8679 15.08843256147029,6917.87,95.437,540.866,538.605,0.0
49418.0,STARLINK-3111,PAYLOAD,2024-07-11 16:10:47,15.08837371,0.0001632,53.2172,69.632,89.7814,270.3365,0.00019294,2.784e-05,0.0,0 STARLINK-3111,1 49418U 21104L   24193.67415595  .00002784  00000-0  19294-3 0  9994,2 49418  53.2172  69.6320 0001632  89.7814 270.3365 15.08837371147138,6917.888,95.438,540.882,538.624,0.0
49418.0,STARLINK-3111,PAYLOAD,2024-07-12 08:04:38,15.08843899,0.0001482,53.2164,66.658,99.5687,260.5473,8.1966e-05,1.017e-05,0.0,0 STARLINK-3111,1 49418U 21104L   24194.33655136  .00001017  00000-0  81966-4 0  9999,2 49418  53.2164  66.6580 0001482  99.5687 260.5473 15.08843899147238,6917.868,95.437,540.759,538.708,0.0
49418.0,STARLINK-3111,PAYLOAD,2024-07-12 20:47:43,15.08839523,0.000153,53.2173,64.2832,103.829,256.2872,9.3472e-05,1.2e-05,0.0,0 STARLINK-3111,1 49418U 21104L   24194.86647492  .00001200  00000-0  93472-4 0  9992,2 49418  53.2173  64.2832 0001530 103.8290 256.2872 15.08839523148421,6917.882,95.438,540.805,538.688,0.0
49418.0,STARLINK-3111,PAYLOAD,2024-07-12 22:23:06,15.0883777,0.0001434,53.2172,63.9861,98.7845,261.331,0.00013832,1.914e-05,0.0,0 STARLINK-3111,1 49418U 21104L   24194.93271567  .00001914  00000-0  13832-3 0  9999,2 49418  53.2172  63.9861 0001434  98.7845 261.3310 15.08837770147323,6917.887,95.438,540.744,538.76,0.0
49418.0,STARLINK-3111,PAYLOAD,2024-07-13 01:33:52,15.08846227,0.0001605,53.218,63.3869,101.2811,258.8361,0.00012283,1.668e-05,0.0,0 STARLINK-3111,1 49418U 21104L   24195.06519020  .00001668  00000-0  12283-3 0  9998,2 49418  53.2180  63.3869 0001605 101.2811 258.8361 15.08846227148456,6917.861,95.437,540.837,538.616,0.0
49418.0,STARLINK-3111,PAYLOAD,2024-07-13 20:38:30,15.08836765,0.0001183,53.2161,59.8152,82.3593,277.7533,6.2023e-05,6.99e-06,0.0,0 STARLINK-3111,1 49418U 21104L   24195.86007987  .00000699  00000-0  62023-4 0  9991,2 49418  53.2161  59.8152 0001183  82.3593 277.7533 15.08836765148577,6917.89,95.438,540.574,538.937,0.0
49418.0,STARLINK-3111,PAYLOAD,2024-07-13 22:13:53,15.08838911,0.0001231,53.2169,59.5186,86.4755,273.6378,7.5031e-05,9.06e-06,0.0,0 STARLINK-3111,1 49418U 21104L   24195.92631807  .00000906  00000-0  75031-4 0  9996,2 49418  53.2169  59.5186 0001231  86.4755 273.6378 15.08838911147473,6917.884,95.438,540.6,538.897,0.0
49418.0,STARLINK-3111,PAYLOAD,2024-07-14 07:46:12,15.08843423,0.000146,53.2174,57.7321,72.7068,287.4084,6.7346e-05,7.84e-06,0.0,0 STARLINK-3111,1 49418U 21104L   24196.32375605  .00000784  00000-0  67346-4 0  9996,2 49418  53.2174  57.7321 0001460  72.7068 287.4084 15.08843423147537,6917.87,95.437,540.745,538.725,0.0
49418.0,STARLINK-3111,PAYLOAD,2024-07-14 20:29:17,15.08845588,0.0001404,53.2172,55.3532,86.7768,273.3385,0.0001316,1.807e-05,0.0,0 STARLINK-3111,1 49418U 21104L   24196.85367416  .00001807  00000-0  13160-3 0  9996,2 49418  53.2172  55.3532 0001404  86.7768 273.3385 15.08845588148727,6917.863,95.437,540.7,538.757,0.0
49418.0,STARLINK-3111,PAYLOAD,2024-07-14 22:04:40,15.08847193,0.0001427,53.217,55.0582,86.9563,273.1593,0.00017082,2.432e-05,0.0,0 STARLINK-3111,1 49418U 21104L   24196.91991254  .00002432  00000-0  17082-3 0  9998,2 49418  53.2170  55.0582 0001427  86.9563 273.1593 15.08847193147628,6917.858,95.437,540.711,538.736,0.0
49418.0,STARLINK-3111,PAYLOAD,2024-07-15 07:36:59,15.08844954,0.0001203,53.2164,53.2739,88.3614,271.7516,8.4368e-05,1.055e-05,0.0,0 STARLINK-3111,1 49418U 21104L   24197.31735136  .00001055  00000-0  84368-4 0  9990,2 49418  53.2164  53.2739 0001203  88.3614 271.7516 15.08844954147687,6917.865,95.437,540.562,538.898,0.0
49418.0,STARLINK-3111,PAYLOAD,2024-07-15 20:20:04,15.08836872,0.0001578,53.2169,50.8941,82.2602,277.8569,5.5373e-06,-2e-06,0.0,0 STARLINK-3111,1 49418U 21104L   24197.84727846 -.00000200  00000-0  55373-5 0  9994,2 49418  53.2169  50.8941 0001578  82.2602 277.8569 15.08836872148872,6917.89,95.438,540.847,538.663,0.0
